start=new Date('2022-08-31T00:00:00.000Z').valueOf();
sats=[{"MEAN_MOTION":"15.06394959","ECCENTRICITY":"0.00015540","TIME_SYSTEM":"UTC","REV_AT_EPOCH":"12476","OBJECT_TYPE":"PAYLOAD","COUNTRY_CODE":"US","LAUNCH_DATE":"2020-06-04","PERIAPSIS":"546.153","MEAN_MOTION_DOT":"0.00000368","RCS_SIZE":"LARGE","MEAN_ANOMALY":"247.3962","CLASSIFICATION_TYPE":"U","OBJECT_NAME":"STARLINK-1392","OBJECT_ID":"2020-035W","PERIOD":"95.592","ARG_OF_PERICENTER":"112.7191","SITE":"AFETR","TLE_LINE2":"2 45677  53.0550  83.7634 0001554 112.7191 247.3962 15.06394959124761","FILE":"3552179","DECAY_DATE":null,"ELEMENT_SET_NO":"999","NORAD_CAT_ID":"45677","BSTAR":"0.00004364000000","INCLINATION":"53.0550","CENTER_NAME":"EARTH","GP_ID":"211356922","MEAN_MOTION_DDOT":"0.0000000000000","EPHEMERIS_TYPE":"0","MEAN_ELEMENT_THEORY":"SGP4","RA_OF_ASC_NODE":"83.7634","APOAPSIS":"548.305","SEMIMAJOR_AXIS":"6925.364","EPOCH":"2022-08-30T18:45:09.102240","REF_FRAME":"TEME","TLE_LINE1":"1 45677U 20035W   22242.78135535  .00000368  00000-0  43640-4 0  9996"},{"LAUNCH_DATE":"2020-06-04","MEAN_MOTION_DOT":"0.00000187","PERIAPSIS":"546.320","RCS_SIZE":"LARGE","MEAN_ANOMALY":"283.0024","OBJECT_TYPE":"PAYLOAD","COUNTRY_CODE":"US","SITE":"AFETR","TLE_LINE2":"2 45678  53.0565  73.5062 0001315  77.1112 283.0024 15.06394274124892","CLASSIFICATION_TYPE":"U","OBJECT_ID":"2020-035X","OBJECT_NAME":"STARLINK-1393","ARG_OF_PERICENTER":"77.1112","PERIOD":"95.593","ECCENTRICITY":"0.00013150","MEAN_MOTION":"15.06394274","REV_AT_EPOCH":"12489","TIME_SYSTEM":"UTC","SEMIMAJOR_AXIS":"6925.366","EPOCH":"2022-08-30T20:11:24.590112","APOAPSIS":"548.142","TLE_LINE1":"1 45678U 20035X   22242.84125683  .00000187  00000-0  31464-4 0  9997","REF_FRAME":"TEME","NORAD_CAT_ID":"45678","BSTAR":"0.00003146400000","INCLINATION":"53.0565","DECAY_DATE":null,"FILE":"3552179","ELEMENT_SET_NO":"999","MEAN_ELEMENT_THEORY":"SGP4","RA_OF_ASC_NODE":"73.5062","CENTER_NAME":"EARTH","GP_ID":"211357671","MEAN_MOTION_DDOT":"0.0000000000000","EPHEMERIS_TYPE":"0"},{"RA_OF_ASC_NODE":"73.4951","MEAN_ELEMENT_THEORY":"SGP4","GP_ID":"211335894","MEAN_MOTION_DDOT":"0.0000000000000","EPHEMERIS_TYPE":"0","CENTER_NAME":"EARTH","INCLINATION":"53.0540","NORAD_CAT_ID":"45679","BSTAR":"-0.00000763410000","FILE":"3552079","DECAY_DATE":null,"ELEMENT_SET_NO":"999","TLE_LINE1":"1 45679U 20035Y   22242.84493379 -.00000395  00000-0 -76341-5 0  9995","REF_FRAME":"TEME","EPOCH":"2022-08-30T20:16:42.279456","SEMIMAJOR_AXIS":"6925.345","APOAPSIS":"548.182","REV_AT_EPOCH":"12451","TIME_SYSTEM":"UTC","ECCENTRICITY":"0.00014030","MEAN_MOTION":"15.06401001","TLE_LINE2":"2 45679  53.0540  73.4951 0001403  90.7181 269.3968 15.06401001124517","SITE":"AFETR","OBJECT_NAME":"STARLINK-1394","OBJECT_ID":"2020-035Y","PERIOD":"95.592","ARG_OF_PERICENTER":"90.7181","CLASSIFICATION_TYPE":"U","MEAN_ANOMALY":"269.3968","MEAN_MOTION_DOT":"-0.00000395","LAUNCH_DATE":"2020-06-04","PERIAPSIS":"546.239","RCS_SIZE":"LARGE","COUNTRY_CODE":"US","OBJECT_TYPE":"PAYLOAD"},{"OBJECT_TYPE":"PAYLOAD","COUNTRY_CODE":"US","PERIAPSIS":"546.196","LAUNCH_DATE":"2020-06-04","MEAN_MOTION_DOT":"0.00000155","RCS_SIZE":"LARGE","MEAN_ANOMALY":"274.0780","CLASSIFICATION_TYPE":"U","OBJECT_NAME":"STARLINK-1395","OBJECT_ID":"2020-035Z","ARG_OF_PERICENTER":"86.0380","PERIOD":"95.593","SITE":"AFETR","TLE_LINE2":"2 45680  53.0557  73.4712 0001495  86.0380 274.0780 15.06394265124903","MEAN_MOTION":"15.06394265","ECCENTRICITY":"0.00014950","TIME_SYSTEM":"UTC","REV_AT_EPOCH":"12490","APOAPSIS":"548.266","SEMIMAJOR_AXIS":"6925.366","EPOCH":"2022-08-30T20:27:20.112768","REF_FRAME":"TEME","TLE_LINE1":"1 45680U 20035Z   22242.85231612  .00000155  00000-0  29312-4 0  9995","DECAY_DATE":null,"FILE":"3552179","ELEMENT_SET_NO":"999","NORAD_CAT_ID":"45680","BSTAR":"0.00002931200000","INCLINATION":"53.0557","CENTER_NAME":"EARTH","MEAN_MOTION_DDOT":"0.0000000000000","GP_ID":"211358673","EPHEMERIS_TYPE":"0","MEAN_ELEMENT_THEORY":"SGP4","RA_OF_ASC_NODE":"73.4712"},{"MEAN_MOTION_DOT":"-0.00000154","LAUNCH_DATE":"2020-06-04","PERIAPSIS":"546.167","RCS_SIZE":"LARGE","MEAN_ANOMALY":"267.6556","OBJECT_TYPE":"PAYLOAD","COUNTRY_CODE":"US","SITE":"AFETR","TLE_LINE2":"2 45681  53.0550  73.4789 0001511  92.4606 267.6556 15.06400046124917","CLASSIFICATION_TYPE":"U","OBJECT_ID":"2020-035AA","OBJECT_NAME":"STARLINK-1396","ARG_OF_PERICENTER":"92.4606","PERIOD":"95.592","ECCENTRICITY":"0.00015110","MEAN_MOTION":"15.06400046","REV_AT_EPOCH":"12491","TIME_SYSTEM":"UTC","SEMIMAJOR_AXIS":"6925.348","EPOCH":"2022-08-30T20:22:01.915392","APOAPSIS":"548.260","TLE_LINE1":"1 45681U 20035AA  22242.84863328 -.00000154  00000-0  85565-5 0  9993","REF_FRAME":"TEME","NORAD_CAT_ID":"45681","BSTAR":"0.00000855650000","INCLINATION":"53.0550","DECAY_DATE":null,"FILE":"3552179","ELEMENT_SET_NO":"999","RA_OF_ASC_NODE":"73.4789","MEAN_ELEMENT_THEORY":"SGP4","CENTER_NAME":"EARTH","GP_ID":"211357421","MEAN_MOTION_DDOT":"0.0000000000000","EPHEMERIS_TYPE":"0"},{"EPOCH":"2022-08-30T18:57:06.379488","SEMIMAJOR_AXIS":"6925.385","APOAPSIS":"548.162","TLE_LINE1":"1 45682U 20035AB  22242.78965717 -.00000142  00000-0  93729-5 0  9990","REF_FRAME":"TEME","INCLINATION":"53.0561","BSTAR":"0.00000937290000","NORAD_CAT_ID":"45682","DECAY_DATE":null,"FILE":"3552179","ELEMENT_SET_NO":"999","MEAN_ELEMENT_THEORY":"SGP4","RA_OF_ASC_NODE":"73.7327","MEAN_MOTION_DDOT":"0.0000000000000","GP_ID":"211357172","EPHEMERIS_TYPE":"0","CENTER_NAME":"EARTH","MEAN_ANOMALY":"258.2523","LAUNCH_DATE":"2020-06-04","MEAN_MOTION_DOT":"-0.00000142","PERIAPSIS":"546.337","RCS_SIZE":"LARGE","COUNTRY_CODE":"US","OBJECT_TYPE":"PAYLOAD","TLE_LINE2":"2 45682  53.0561  73.7327 0001318 101.8614 258.2523 15.06388261124891","SITE":"AFETR","OBJECT_ID":"2020-035AB","OBJECT_NAME":"STARLINK-1397","PERIOD":"95.593","ARG_OF_PERICENTER":"101.8614","CLASSIFICATION_TYPE":"U","ECCENTRICITY":"0.00013180","MEAN_MOTION":"15.06388261","REV_AT_EPOCH":"12489","TIME_SYSTEM":"UTC"},{"MEAN_MOTION":"15.06400862","ECCENTRICITY":"0.00013120","TIME_SYSTEM":"UTC","REV_AT_EPOCH":"12491","OBJECT_TYPE":"PAYLOAD","COUNTRY_CODE":"US","PERIAPSIS":"546.302","LAUNCH_DATE":"2020-06-04","MEAN_MOTION_DOT":"0.00000610","RCS_SIZE":"LARGE","MEAN_ANOMALY":"267.0716","CLASSIFICATION_TYPE":"U","OBJECT_ID":"2020-035AC","OBJECT_NAME":"STARLINK-1399","ARG_OF_PERICENTER":"93.0423","PERIOD":"95.592","SITE":"AFETR","TLE_LINE2":"2 45683  53.0535  73.5143 0001312  93.0423 267.0716 15.06400862124918","FILE":"3552179","DECAY_DATE":null,"ELEMENT_SET_NO":"999","BSTAR":"0.00005983000000","NORAD_CAT_ID":"45683","INCLINATION":"53.0535","CENTER_NAME":"EARTH","MEAN_MOTION_DDOT":"0.0000000000000","GP_ID":"211358423","EPHEMERIS_TYPE":"0","RA_OF_ASC_NODE":"73.5143","MEAN_ELEMENT_THEORY":"SGP4","APOAPSIS":"548.120","SEMIMAJOR_AXIS":"6925.346","EPOCH":"2022-08-30T20:06:05.365440","REF_FRAME":"TEME","TLE_LINE1":"1 45683U 20035AC  22242.83756210  .00000610  00000-0  59830-4 0  9996"},{"EPOCH":"2022-08-30T19:34:15.002688","SEMIMAJOR_AXIS":"6925.360","APOAPSIS":"548.272","TLE_LINE1":"1 45684U 20035AD  22242.81545142 -.00001587  00000-0 -87700-4 0  9998","REF_FRAME":"TEME","INCLINATION":"53.0558","BSTAR":"-0.00008770000000","NORAD_CAT_ID":"45684","DECAY_DATE":null,"FILE":"3552179","ELEMENT_SET_NO":"999","MEAN_ELEMENT_THEORY":"SGP4","RA_OF_ASC_NODE":"73.6230","MEAN_MOTION_DDOT":"0.0000000000000","GP_ID":"211358173","EPHEMERIS_TYPE":"0","CENTER_NAME":"EARTH","MEAN_ANOMALY":"279.9252","PERIAPSIS":"546.179","LAUNCH_DATE":"2020-06-04","MEAN_MOTION_DOT":"-0.00001587","RCS_SIZE":"LARGE","COUNTRY_CODE":"US","OBJECT_TYPE":"PAYLOAD","TLE_LINE2":"2 45684  53.0558  73.6230 0001511  80.1907 279.9252 15.06396155124913","SITE":"AFETR","OBJECT_NAME":"STARLINK-1401","OBJECT_ID":"2020-035AD","ARG_OF_PERICENTER":"80.1907","PERIOD":"95.592","CLASSIFICATION_TYPE":"U","ECCENTRICITY":"0.00015110","MEAN_MOTION":"15.06396155","REV_AT_EPOCH":"12491","TIME_SYSTEM":"UTC"},{"REV_AT_EPOCH":"12491","TIME_SYSTEM":"UTC","ECCENTRICITY":"0.00014190","MEAN_MOTION":"15.06399233","SITE":"AFETR","TLE_LINE2":"2 45685  53.0545  73.6459 0001419  91.2211 268.8941 15.06399233124913","CLASSIFICATION_TYPE":"U","PERIOD":"95.592","ARG_OF_PERICENTER":"91.2211","OBJECT_ID":"2020-035AE","OBJECT_NAME":"STARLINK-1402","RCS_SIZE":"LARGE","LAUNCH_DATE":"2020-06-04","MEAN_MOTION_DOT":"0.00000081","PERIAPSIS":"546.233","MEAN_ANOMALY":"268.8941","OBJECT_TYPE":"PAYLOAD","COUNTRY_CODE":"US","RA_OF_ASC_NODE":"73.6459","MEAN_ELEMENT_THEORY":"SGP4","CENTER_NAME":"EARTH","EPHEMERIS_TYPE":"0","GP_ID":"211356923","MEAN_MOTION_DDOT":"0.0000000000000","NORAD_CAT_ID":"45685","BSTAR":"0.00002431600000","INCLINATION":"53.0545","ELEMENT_SET_NO":"999","FILE":"3552179","DECAY_DATE":null,"TLE_LINE1":"1 45685U 20035AE  22242.81176231  .00000081  00000-0  24316-4 0  9998","REF_FRAME":"TEME","SEMIMAJOR_AXIS":"6925.351","EPOCH":"2022-08-30T19:28:56.263584","APOAPSIS":"548.199"},{"ELEMENT_SET_NO":"999","FILE":"3552179","DECAY_DATE":null,"NORAD_CAT_ID":"45686","BSTAR":"0.00007090300000","INCLINATION":"53.0549","CENTER_NAME":"EARTH","EPHEMERIS_TYPE":"0","MEAN_MOTION_DDOT":"0.0000000000000","GP_ID":"211357672","RA_OF_ASC_NODE":"73.6656","MEAN_ELEMENT_THEORY":"SGP4","APOAPSIS":"548.673","SEMIMAJOR_AXIS":"6925.330","EPOCH":"2022-08-30T19:18:19.205280","REF_FRAME":"TEME","TLE_LINE1":"1 45686U 20035AF  22242.80438895  .00000775  00000-0  70903-4 0  9998","MEAN_MOTION":"15.06406086","ECCENTRICITY":"0.00021350","TIME_SYSTEM":"UTC","REV_AT_EPOCH":"12491","OBJECT_TYPE":"PAYLOAD","COUNTRY_CODE":"US","RCS_SIZE":"LARGE","PERIAPSIS":"545.716","LAUNCH_DATE":"2020-06-04","MEAN_MOTION_DOT":"0.00000775","MEAN_ANOMALY":"263.9229","CLASSIFICATION_TYPE":"U","PERIOD":"95.592","ARG_OF_PERICENTER":"96.2003","OBJECT_NAME":"STARLINK-1404","OBJECT_ID":"2020-035AF","SITE":"AFETR","TLE_LINE2":"2 45686  53.0549  73.6656 0002135  96.2003 263.9229 15.06406086124917"}];
